start=new Date('2023-02-07T00:00:00.000Z').valueOf();
sats=[{"TLE_LINE2":"2 53017  53.2175 102.6019 0001168 106.1465 253.9655 15.08852336 32886","REV_AT_EPOCH":"3288","ARG_OF_PERICENTER":"106.1465","MEAN_MOTION_DDOT":"0.0000000000000","LAUNCH_DATE":"2022-07-07","TIME_SYSTEM":"UTC","CENTER_NAME":"EARTH","MEAN_MOTION":"15.08852336","NORAD_CAT_ID":"53017","GP_ID":"224652978","ECCENTRICITY":"0.00011680","TLE_LINE1":"1 53017U 22076AH  23037.87307840  .00000665  00000-0  59832-4 0  9993","OBJECT_ID":"2022-076AH","OBJECT_NAME":"STARLINK-4281","INCLINATION":"53.2175","RA_OF_ASC_NODE":"102.6019","MEAN_ELEMENT_THEORY":"SGP4","APOAPSIS":"540.516","REF_FRAME":"TEME","EPHEMERIS_TYPE":"0","EPOCH":"2023-02-06T20:57:13.973760","CLASSIFICATION_TYPE":"U","RCS_SIZE":"LARGE","OBJECT_TYPE":"PAYLOAD","FILE":"3776034","SITE":"AFETR","ELEMENT_SET_NO":"999","SEMIMAJOR_AXIS":"6917.843","DECAY_DATE":null,"MEAN_MOTION_DOT":"0.00000665","COUNTRY_CODE":"US","PERIOD":"95.437","MEAN_ANOMALY":"253.9655","PERIAPSIS":"538.900","BSTAR":"0.00005983200000"},{"MEAN_MOTION":"15.08850229","NORAD_CAT_ID":"53018","GP_ID":"224651727","ECCENTRICITY":"0.00011780","MEAN_MOTION_DDOT":"0.0000000000000","LAUNCH_DATE":"2022-07-07","TIME_SYSTEM":"UTC","CENTER_NAME":"EARTH","OBJECT_NAME":"STARLINK-4279","TLE_LINE1":"1 53018U 22076AJ  23037.88507867  .00000661  00000-0  59605-4 0  9990","OBJECT_ID":"2022-076AJ","TLE_LINE2":"2 53018  53.2155 102.5445 0001178 102.1670 257.9454 15.08850229 32871","ARG_OF_PERICENTER":"102.1670","REV_AT_EPOCH":"3287","DECAY_DATE":null,"MEAN_MOTION_DOT":"0.00000661","FILE":"3776034","ELEMENT_SET_NO":"999","SITE":"AFETR","SEMIMAJOR_AXIS":"6917.849","MEAN_ANOMALY":"257.9454","PERIAPSIS":"538.899","BSTAR":"0.00005960500000","COUNTRY_CODE":"US","PERIOD":"95.437","APOAPSIS":"540.529","REF_FRAME":"TEME","EPHEMERIS_TYPE":"0","INCLINATION":"53.2155","RA_OF_ASC_NODE":"102.5445","MEAN_ELEMENT_THEORY":"SGP4","OBJECT_TYPE":"PAYLOAD","EPOCH":"2023-02-06T21:14:30.797088","CLASSIFICATION_TYPE":"U","RCS_SIZE":"LARGE"},{"OBJECT_NAME":"STARLINK-4282","TLE_LINE1":"1 53019U 22076AK  23037.86572135 -.00000814  00000-0 -33056-4 0  9993","OBJECT_ID":"2022-076AK","MEAN_MOTION":"15.08847999","NORAD_CAT_ID":"53019","GP_ID":"224651977","ECCENTRICITY":"0.00010700","MEAN_MOTION_DDOT":"0.0000000000000","LAUNCH_DATE":"2022-07-07","TIME_SYSTEM":"UTC","CENTER_NAME":"EARTH","ARG_OF_PERICENTER":"85.4424","REV_AT_EPOCH":"3287","TLE_LINE2":"2 53019  53.2178 102.6321 0001070  85.4424 274.6691 15.08847999 32871","MEAN_ANOMALY":"274.6691","PERIAPSIS":"538.981","BSTAR":"-0.00003305600000","COUNTRY_CODE":"US","PERIOD":"95.437","DECAY_DATE":null,"MEAN_MOTION_DOT":"-0.00000814","FILE":"3776034","ELEMENT_SET_NO":"999","SITE":"AFETR","SEMIMAJOR_AXIS":"6917.856","OBJECT_TYPE":"PAYLOAD","EPOCH":"2023-02-06T20:46:38.324640","CLASSIFICATION_TYPE":"U","RCS_SIZE":"LARGE","APOAPSIS":"540.461","REF_FRAME":"TEME","EPHEMERIS_TYPE":"0","INCLINATION":"53.2178","RA_OF_ASC_NODE":"102.6321","MEAN_ELEMENT_THEORY":"SGP4"},{"OBJECT_NAME":"STARLINK-4287","TLE_LINE1":"1 53020U 22076AL  23037.88044190  .00000832  00000-0  70344-4 0  9991","OBJECT_ID":"2022-076AL","MEAN_MOTION":"15.08845420","NORAD_CAT_ID":"53020","GP_ID":"224653228","ECCENTRICITY":"0.00012440","MEAN_MOTION_DDOT":"0.0000000000000","LAUNCH_DATE":"2022-07-07","TIME_SYSTEM":"UTC","CENTER_NAME":"EARTH","ARG_OF_PERICENTER":"110.0737","REV_AT_EPOCH":"3287","TLE_LINE2":"2 53020  53.2144 102.5656 0001244 110.0737 250.0389 15.08845420 32870","MEAN_ANOMALY":"250.0389","PERIAPSIS":"538.868","BSTAR":"0.00007034400000","COUNTRY_CODE":"US","PERIOD":"95.437","DECAY_DATE":null,"MEAN_MOTION_DOT":"0.00000832","FILE":"3776034","SEMIMAJOR_AXIS":"6917.864","SITE":"AFETR","ELEMENT_SET_NO":"999","OBJECT_TYPE":"PAYLOAD","CLASSIFICATION_TYPE":"U","EPOCH":"2023-02-06T21:07:50.180160","RCS_SIZE":"LARGE","REF_FRAME":"TEME","APOAPSIS":"540.589","EPHEMERIS_TYPE":"0","INCLINATION":"53.2144","RA_OF_ASC_NODE":"102.5656","MEAN_ELEMENT_THEORY":"SGP4"},{"REV_AT_EPOCH":"3283","ARG_OF_PERICENTER":"112.5891","TLE_LINE2":"2 53021  53.2161 103.8562 0001558 112.5891 247.5267 15.08860317 32830","TLE_LINE1":"1 53021U 22076AM  23037.59339310  .00000287  00000-0  36105-4 0  9992","OBJECT_ID":"2022-076AM","OBJECT_NAME":"STARLINK-4203","LAUNCH_DATE":"2022-07-07","MEAN_MOTION_DDOT":"0.0000000000000","CENTER_NAME":"EARTH","TIME_SYSTEM":"UTC","NORAD_CAT_ID":"53021","MEAN_MOTION":"15.08860317","ECCENTRICITY":"0.00015580","GP_ID":"224653479","EPOCH":"2023-02-06T14:14:29.163840","CLASSIFICATION_TYPE":"U","RCS_SIZE":"LARGE","OBJECT_TYPE":"PAYLOAD","INCLINATION":"53.2161","MEAN_ELEMENT_THEORY":"SGP4","RA_OF_ASC_NODE":"103.8562","REF_FRAME":"TEME","APOAPSIS":"540.761","EPHEMERIS_TYPE":"0","PERIOD":"95.436","COUNTRY_CODE":"US","PERIAPSIS":"538.605","MEAN_ANOMALY":"247.5267","BSTAR":"0.00003610500000","FILE":"3776034","SITE":"AFETR","SEMIMAJOR_AXIS":"6917.818","ELEMENT_SET_NO":"999","DECAY_DATE":null,"MEAN_MOTION_DOT":"0.00000287"},{"OBJECT_NAME":"STARLINK-4216","OBJECT_ID":"2022-076AN","TLE_LINE1":"1 53022U 22076AN  23037.86939701  .00000307  00000-0  37368-4 0  9998","GP_ID":"224652227","ECCENTRICITY":"0.00010550","NORAD_CAT_ID":"53022","MEAN_MOTION":"15.08852118","CENTER_NAME":"EARTH","TIME_SYSTEM":"UTC","LAUNCH_DATE":"2022-07-07","MEAN_MOTION_DDOT":"0.0000000000000","ARG_OF_PERICENTER":"89.1863","REV_AT_EPOCH":"3287","TLE_LINE2":"2 53022  53.2171 102.6187 0001055  89.1863 270.9250 15.08852118 32878","BSTAR":"0.00003736800000","PERIAPSIS":"538.979","MEAN_ANOMALY":"270.9250","PERIOD":"95.437","COUNTRY_CODE":"US","MEAN_MOTION_DOT":"0.00000307","DECAY_DATE":null,"SEMIMAJOR_AXIS":"6917.843","SITE":"AFETR","ELEMENT_SET_NO":"999","FILE":"3776034","OBJECT_TYPE":"PAYLOAD","RCS_SIZE":"LARGE","EPOCH":"2023-02-06T20:51:55.901664","CLASSIFICATION_TYPE":"U","EPHEMERIS_TYPE":"0","REF_FRAME":"TEME","APOAPSIS":"540.438","MEAN_ELEMENT_THEORY":"SGP4","RA_OF_ASC_NODE":"102.6187","INCLINATION":"53.2171"},{"TLE_LINE2":"2 53023  53.2179 103.8715 0001350 114.0555 246.0579 15.08860995 32837","ARG_OF_PERICENTER":"114.0555","REV_AT_EPOCH":"3283","GP_ID":"224652477","ECCENTRICITY":"0.00013500","NORAD_CAT_ID":"53023","MEAN_MOTION":"15.08860995","CENTER_NAME":"EARTH","TIME_SYSTEM":"UTC","MEAN_MOTION_DDOT":"0.0000000000000","LAUNCH_DATE":"2022-07-07","OBJECT_NAME":"STARLINK-4284","OBJECT_ID":"2022-076AP","TLE_LINE1":"1 53023U 22076AP  23037.58603325  .00002617  00000-0  18235-3 0  9995","EPHEMERIS_TYPE":"0","APOAPSIS":"540.615","REF_FRAME":"TEME","MEAN_ELEMENT_THEORY":"SGP4","RA_OF_ASC_NODE":"103.8715","INCLINATION":"53.2179","OBJECT_TYPE":"PAYLOAD","RCS_SIZE":"LARGE","EPOCH":"2023-02-06T14:03:53.272800","CLASSIFICATION_TYPE":"U","MEAN_MOTION_DOT":"0.00002617","DECAY_DATE":null,"ELEMENT_SET_NO":"999","SITE":"AFETR","SEMIMAJOR_AXIS":"6917.816","FILE":"3776034","BSTAR":"0.00018235000000","PERIAPSIS":"538.747","MEAN_ANOMALY":"246.0579","PERIOD":"95.436","COUNTRY_CODE":"US"},{"OBJECT_TYPE":"PAYLOAD","RCS_SIZE":"LARGE","EPOCH":"2023-02-06T14:09:11.601504","CLASSIFICATION_TYPE":"U","EPHEMERIS_TYPE":"0","REF_FRAME":"TEME","APOAPSIS":"540.579","MEAN_ELEMENT_THEORY":"SGP4","RA_OF_ASC_NODE":"103.8629","INCLINATION":"53.2185","BSTAR":"0.00005246400000","PERIAPSIS":"538.813","MEAN_ANOMALY":"250.1543","PERIOD":"95.437","COUNTRY_CODE":"US","MEAN_MOTION_DOT":"0.00000548","DECAY_DATE":null,"SEMIMAJOR_AXIS":"6917.831","SITE":"AFETR","ELEMENT_SET_NO":"999","FILE":"3776034","ARG_OF_PERICENTER":"109.9587","REV_AT_EPOCH":"3283","TLE_LINE2":"2 53024  53.2185 103.8629 0001277 109.9587 250.1543 15.08856141 32830","OBJECT_NAME":"STARLINK-4289","OBJECT_ID":"2022-076AQ","TLE_LINE1":"1 53024U 22076AQ  23037.58971761  .00000548  00000-0  52464-4 0  9992","ECCENTRICITY":"0.00012770","GP_ID":"224652728","NORAD_CAT_ID":"53024","MEAN_MOTION":"15.08856141","TIME_SYSTEM":"UTC","CENTER_NAME":"EARTH","LAUNCH_DATE":"2022-07-07","MEAN_MOTION_DDOT":"0.0000000000000"},{"COUNTRY_CODE":"US","PERIOD":"95.436","MEAN_ANOMALY":"279.6447","PERIAPSIS":"538.659","BSTAR":"0.00005586700000","FILE":"3775951","SITE":"AFETR","ELEMENT_SET_NO":"999","SEMIMAJOR_AXIS":"6917.824","DECAY_DATE":null,"MEAN_MOTION_DOT":"0.00000602","EPOCH":"2023-02-06T21:55:31.085472","CLASSIFICATION_TYPE":"U","RCS_SIZE":"LARGE","OBJECT_TYPE":"PAYLOAD","INCLINATION":"53.2173","RA_OF_ASC_NODE":"102.4209","MEAN_ELEMENT_THEORY":"SGP4","REF_FRAME":"TEME","APOAPSIS":"540.719","EPHEMERIS_TYPE":"0","TLE_LINE1":"1 53025U 22076AR  23037.91355423  .00000602  00000-0  55867-4 0  9992","OBJECT_ID":"2022-076AR","OBJECT_NAME":"STARLINK-4218","MEAN_MOTION_DDOT":"0.0000000000000","LAUNCH_DATE":"2022-07-07","CENTER_NAME":"EARTH","TIME_SYSTEM":"UTC","MEAN_MOTION":"15.08858423","NORAD_CAT_ID":"53025","GP_ID":"224626879","ECCENTRICITY":"0.00014890","REV_AT_EPOCH":"3335","ARG_OF_PERICENTER":"80.4714","TLE_LINE2":"2 53025  53.2173 102.4209 0001489  80.4714 279.6447 15.08858423 33359"},{"RA_OF_ASC_NODE":"103.8395","MEAN_ELEMENT_THEORY":"SGP4","INCLINATION":"53.2166","EPHEMERIS_TYPE":"0","APOAPSIS":"540.606","REF_FRAME":"TEME","RCS_SIZE":"LARGE","EPOCH":"2023-02-06T14:19:47.415648","CLASSIFICATION_TYPE":"U","OBJECT_TYPE":"PAYLOAD","ELEMENT_SET_NO":"999","SITE":"AFETR","SEMIMAJOR_AXIS":"6917.837","FILE":"3776034","MEAN_MOTION_DOT":"0.00000266","DECAY_DATE":null,"COUNTRY_CODE":"US","PERIOD":"95.437","BSTAR":"0.00003481800000","MEAN_ANOMALY":"238.5839","PERIAPSIS":"538.797","TLE_LINE2":"2 53026  53.2166 103.8395 0001308 121.5281 238.5839 15.08854345 32839","REV_AT_EPOCH":"3283","ARG_OF_PERICENTER":"121.5281","CENTER_NAME":"EARTH","TIME_SYSTEM":"UTC","MEAN_MOTION_DDOT":"0.0000000000000","LAUNCH_DATE":"2022-07-07","GP_ID":"224651728","ECCENTRICITY":"0.00013080","MEAN_MOTION":"15.08854345","NORAD_CAT_ID":"53026","OBJECT_ID":"2022-076AS","TLE_LINE1":"1 53026U 22076AS  23037.59707657  .00000266  00000-0  34818-4 0  9996","OBJECT_NAME":"STARLINK-4119"}];
